STARLINK-3139_new
1 19425C 21104T   21326.14742583 -.00865462  00000-0 -32274-2 0  3267
2 19425  53.2176  90.8285 0024428  64.8820 234.1422 15.87606700    19
STARLINK-3139_old
1 29425C 21104T   21325.19079965 -.00818713  00000-0 -27551-2 0  3256
2 29425  53.2175  95.6700 0032001  63.7362 161.7475 15.89227895    17
